{
  "type": "FeatureCollection",
  "features": [
    {
      "type": "Feature",
      "properties": {
        "norad_id": 19071,
        "name": "OSCAR 32",
        "group": "nnss",
        "lat": 29.912004546762514,
        "lon": 16.050071329447764,
        "alt_km": 1287.572435569965,
        "timestamp": "2025-12-03T10:52:57.721870+00:00",
        "meta_object_name": "OSCAR 32",
        "meta_object_id": "1988-033B",
        "meta_epoch": "2025-12-03T03:48:32.094720",
        "meta_mean_motion": 13.27951982,
        "meta_eccentricity": 0.0187558,
        "meta_inclination": 90.3227,
        "meta_ra_of_asc_node": 16.2266,
        "meta_arg_of_pericenter": 193.4365,
        "meta_mean_anomaly": 228.9932,
        "meta_ephemeris_type": 0,
        "meta_classification_type": "U",
        "meta_norad_cat_id": 19071,
        "meta_element_set_no": 999,
        "meta_rev_at_epoch": 82138,
        "meta_bstar": 0.0001708,
        "meta_mean_motion_dot": 9.3e-07,
        "meta_mean_motion_ddot": 0,
        "tle_line1": "1 19071U 88033B   25337.15870480  .00000093  00000+0  17080-3 0  9993",
        "tle_line2": "2 19071  90.3227  16.2266 0187558 193.4365 228.9932 13.27951982821385"
      },
      "geometry": {
        "type": "Point",
        "coordinates": [
          16.050071329447764,
          29.912004546762514
        ]
      }
    },
    {
      "type": "Feature",
      "properties": {
        "norad_id": 19223,
        "name": "NOVA 2",
        "group": "nnss",
        "lat": 35.27110235650905,
        "lon": 78.29286908480812,
        "alt_km": 1147.6190613923663,
        "timestamp": "2025-12-03T10:52:57.721881+00:00",
        "meta_object_name": "NOVA 2",
        "meta_object_id": "1988-052A",
        "meta_epoch": "2025-12-03T00:41:23.597376",
        "meta_mean_motion": 13.22934024,
        "meta_eccentricity": 0.0031366,
        "meta_inclination": 89.9873,
        "meta_ra_of_asc_node": 78.2844,
        "meta_arg_of_pericenter": 43.0655,
        "meta_mean_anomaly": 130.8422,
        "meta_ephemeris_type": 0,
        "meta_classification_type": "U",
        "meta_norad_cat_id": 19223,
        "meta_element_set_no": 999,
        "meta_rev_at_epoch": 80819,
        "meta_bstar": 0.00014093,
        "meta_mean_motion_dot": 6.8e-07,
        "meta_mean_motion_ddot": 0,
        "tle_line1": "1 19223U 88052A   25337.02874534  .00000068  00000+0  14093-3 0  9996",
        "tle_line2": "2 19223  89.9873  78.2844 0031366  43.0655 130.8422 13.22934024808194"
      },
      "geometry": {
        "type": "Point",
        "coordinates": [
          78.29286908480812,
          35.27110235650905
        ]
      }
    },
    {
      "type": "Feature",
      "properties": {
        "norad_id": 19419,
        "name": "OSCAR 25",
        "group": "nnss",
        "lat": 6.60623298040132,
        "lon": -159.782529350793,
        "alt_km": 1112.6365148825935,
        "timestamp": "2025-12-03T10:52:57.721892+00:00",
        "meta_object_name": "OSCAR 25",
        "meta_object_id": "1988-074A",
        "meta_epoch": "2025-12-03T03:07:33.737376",
        "meta_mean_motion": 13.42620405,
        "meta_eccentricity": 0.0094218,
        "meta_inclination": 90.0356,
        "meta_ra_of_asc_node": 20.2122,
        "meta_arg_of_pericenter": 273.7658,
        "meta_mean_anomaly": 139.3658,
        "meta_ephemeris_type": 0,
        "meta_classification_type": "U",
        "meta_norad_cat_id": 19419,
        "meta_element_set_no": 999,
        "meta_rev_at_epoch": 82511,
        "meta_bstar": 0.0002363,
        "meta_mean_motion_dot": 1.45e-06,
        "meta_mean_motion_ddot": 0,
        "tle_line1": "1 19419U 88074A   25337.13025159  .00000145  00000+0  23630-3 0  9993",
        "tle_line2": "2 19419  90.0356  20.2122 0094218 273.7658 139.3658 13.42620405825119"
      },
      "geometry": {
        "type": "Point",
        "coordinates": [
          -159.782529350793,
          6.60623298040132
        ]
      }
    },
    {
      "type": "Feature",
      "properties": {
        "norad_id": 19420,
        "name": "OSCAR 31",
        "group": "nnss",
        "lat": 59.83693852188148,
        "lon": 20.4976858422219,
        "alt_km": 1155.3907676798344,
        "timestamp": "2025-12-03T10:52:57.721902+00:00",
        "meta_object_name": "OSCAR 31",
        "meta_object_id": "1988-074B",
        "meta_epoch": "2025-12-03T03:31:40.915776",
        "meta_mean_motion": 13.42582141,
        "meta_eccentricity": 0.0092444,
        "meta_inclination": 90.0372,
        "meta_ra_of_asc_node": 20.5606,
        "meta_arg_of_pericenter": 267.8245,
        "meta_mean_anomaly": 111.3176,
        "meta_ephemeris_type": 0,
        "meta_classification_type": "U",
        "meta_norad_cat_id": 19420,
        "meta_element_set_no": 999,
        "meta_rev_at_epoch": 82522,
        "meta_bstar": 0.00019648,
        "meta_mean_motion_dot": 1.22e-06,
        "meta_mean_motion_ddot": 0,
        "tle_line1": "1 19420U 88074B   25337.14700134  .00000122  00000+0  19648-3 0  9998",
        "tle_line2": "2 19420  90.0372  20.5606 0092444 267.8245 111.3176 13.42582141825225"
      },
      "geometry": {
        "type": "Point",
        "coordinates": [
          20.4976858422219,
          59.83693852188148
        ]
      }
    }
  ]
}